DELTA 2 R/B(1)          
1 20453U 90008B   25353.27511268  .00034138  00000+0  53691-3 0  9996
2 20453  35.6078 338.3136 0111233 237.9393 121.0497 15.45727258913642
COSMOS 2058             
1 20465U 90010A   25353.31619097  .00004040  00000+0  24326-3 0  9998
2 20465  82.4691 126.5617 0008848 246.3618 113.6684 15.10532843930109
SL-14 R/B               
1 20466U 90010B   25353.08584663  .00000365  00000+0  41467-4 0  9995
2 20466  82.5019 343.0865 0019168 201.2342 158.8080 14.83477010916532
SL-14 R/B               
1 20511U 90018B   25353.22869204  .00000384  00000+0  45327-4 0  9997
2 20511  82.5214 298.2996 0016446   2.5571 357.5725 14.82053062910666
HST                     
1 20580U 90037B   25352.01685452  .00005621  00000+0  19130-3 0  9992
2 20580  28.4674 236.5696 0001951 306.2372  53.8043 15.28122531760808
SL-16 R/B               
1 20625U 90046B   25352.75476282 -.00000282  00000+0 -12112-3 0  9995
2 20625  70.9992 107.8898 0011968  62.5079 297.7258 14.14999559836944
COSMOS 2084             
1 20663U 90055A   25353.14574068  .00002166  00000+0  16446-3 0  9997
2 20663  62.7901 250.1652 0030687 175.5268 184.6112 15.05056152924191
SL-6 R/B(2)             
1 20666U 90055D   25352.88787053  .00001593  00000+0  13196-3 0  9992
2 20666  62.7810 168.5247 0013366 313.0293  46.9686 15.03100893926049
SL-8 R/B                
1 20775U 90078B   25352.99301852  .00015210  00000+0  47023-3 0  9996
2 20775  82.9044 323.7112 0370960 284.8604  71.1810 14.86177662797308
SL-8 R/B                
1 21088U 91006B   25353.22765288  .00000106  00000+0  91012-4 0  9996
2 21088  82.9421 229.8871 0021180 260.5264 220.8886 13.77491139752992
OKEAN-3                 
1 21397U 91039A   25353.20162037  .00002369  00000+0  16851-3 0  9996
2 21397  82.5179  54.7937 0013420 241.6057 118.3817 15.04161422852938
COSMOS 2151             
1 21422U 91042A   25353.22866804  .00001570  00000+0  12492-3 0  9994
2 21422  82.4962 161.2499 0012028 337.4101  22.6592 14.99709627851136
