CCSDS_OMM_VERS = 2.0
CREATION_DATE  = 
ORIGINATOR     = 

OBJECT_NAME    = DELTA 2 R/B(1)
OBJECT_ID      = 1990-008B
CENTER_NAME    = EARTH
REF_FRAME      = TEME
TIME_SYSTEM    = UTC
MEAN_ELEMENT_THEORY = SGP/SGP4

EPOCH          = 2025-12-19T06:36:09.735552
MEAN_MOTION    = 15.45727258
ECCENTRICITY   = .0111233
INCLINATION    = 35.6078
RA_OF_ASC_NODE = 338.3136
ARG_OF_PERICENTER = 237.9393
MEAN_ANOMALY   = 121.0497

EPHEMERIS_TYPE = 0
CLASSIFICATION_TYPE = U
NORAD_CAT_ID   = 20453
ELEMENT_SET_NO = 999
REV_AT_EPOCH   = 91364
BSTAR          = .53690854E-3
MEAN_MOTION_DOT = .34138E-3
MEAN_MOTION_DDOT = 0

CCSDS_OMM_VERS = 2.0
CREATION_DATE  = 
ORIGINATOR     = 

OBJECT_NAME    = COSMOS 2058
OBJECT_ID      = 1990-010A
CENTER_NAME    = EARTH
REF_FRAME      = TEME
TIME_SYSTEM    = UTC
MEAN_ELEMENT_THEORY = SGP/SGP4

EPOCH          = 2025-12-19T07:35:18.899808
MEAN_MOTION    = 15.10532843
ECCENTRICITY   = .00088485
INCLINATION    = 82.4691
RA_OF_ASC_NODE = 126.5617
ARG_OF_PERICENTER = 246.3618
MEAN_ANOMALY   = 113.6684

EPHEMERIS_TYPE = 0
CLASSIFICATION_TYPE = U
NORAD_CAT_ID   = 20465
ELEMENT_SET_NO = 999
REV_AT_EPOCH   = 93010
BSTAR          = .24326438E-3
MEAN_MOTION_DOT = .404E-4
MEAN_MOTION_DDOT = 0

CCSDS_OMM_VERS = 2.0
CREATION_DATE  = 
ORIGINATOR     = 

OBJECT_NAME    = SL-14 R/B
OBJECT_ID      = 1990-010B
CENTER_NAME    = EARTH
REF_FRAME      = TEME
TIME_SYSTEM    = UTC
MEAN_ELEMENT_THEORY = SGP/SGP4

EPOCH          = 2025-12-19T02:03:37.148832
MEAN_MOTION    = 14.83477010
ECCENTRICITY   = .00191685
INCLINATION    = 82.5019
RA_OF_ASC_NODE = 343.0865
ARG_OF_PERICENTER = 201.2342
MEAN_ANOMALY   = 158.8080

EPHEMERIS_TYPE = 0
CLASSIFICATION_TYPE = U
NORAD_CAT_ID   = 20466
ELEMENT_SET_NO = 999
REV_AT_EPOCH   = 91653
BSTAR          = .41467405E-4
MEAN_MOTION_DOT = .365E-5
MEAN_MOTION_DDOT = 0

CCSDS_OMM_VERS = 2.0
CREATION_DATE  = 
ORIGINATOR     = 

OBJECT_NAME    = SL-14 R/B
OBJECT_ID      = 1990-018B
CENTER_NAME    = EARTH
REF_FRAME      = TEME
TIME_SYSTEM    = UTC
MEAN_ELEMENT_THEORY = SGP/SGP4

EPOCH          = 2025-12-19T05:29:18.992256
MEAN_MOTION    = 14.82053062
ECCENTRICITY   = .0016446
INCLINATION    = 82.5214
RA_OF_ASC_NODE = 298.2996
ARG_OF_PERICENTER = 2.5571
MEAN_ANOMALY   = 357.5725

EPHEMERIS_TYPE = 0
CLASSIFICATION_TYPE = U
NORAD_CAT_ID   = 20511
ELEMENT_SET_NO = 999
REV_AT_EPOCH   = 91066
BSTAR          = .45326692E-4
MEAN_MOTION_DOT = .384E-5
MEAN_MOTION_DDOT = 0

CCSDS_OMM_VERS = 2.0
CREATION_DATE  = 
ORIGINATOR     = 

OBJECT_NAME    = HST
OBJECT_ID      = 1990-037B
CENTER_NAME    = EARTH
REF_FRAME      = TEME
TIME_SYSTEM    = UTC
MEAN_ELEMENT_THEORY = SGP/SGP4

EPOCH          = 2025-12-18T00:24:16.230528
MEAN_MOTION    = 15.28122531
ECCENTRICITY   = .00019515
INCLINATION    = 28.4674
RA_OF_ASC_NODE = 236.5696
ARG_OF_PERICENTER = 306.2372
MEAN_ANOMALY   = 53.8043

EPHEMERIS_TYPE = 0
CLASSIFICATION_TYPE = U
NORAD_CAT_ID   = 20580
ELEMENT_SET_NO = 999
REV_AT_EPOCH   = 76080
BSTAR          = .19129847E-3
MEAN_MOTION_DOT = .5621E-4
MEAN_MOTION_DDOT = 0

CCSDS_OMM_VERS = 2.0
CREATION_DATE  = 
ORIGINATOR     = 

OBJECT_NAME    = SL-16 R/B
OBJECT_ID      = 1990-046B
CENTER_NAME    = EARTH
REF_FRAME      = TEME
TIME_SYSTEM    = UTC
MEAN_ELEMENT_THEORY = SGP/SGP4

EPOCH          = 2025-12-18T18:06:51.507648
MEAN_MOTION    = 14.14999559
ECCENTRICITY   = .00119682
INCLINATION    = 70.9992
RA_OF_ASC_NODE = 107.8898
ARG_OF_PERICENTER = 62.5079
MEAN_ANOMALY   = 297.7258

EPHEMERIS_TYPE = 0
CLASSIFICATION_TYPE = U
NORAD_CAT_ID   = 20625
ELEMENT_SET_NO = 999
REV_AT_EPOCH   = 83694
BSTAR          = -.12112335E-3
MEAN_MOTION_DOT = -.282E-5
MEAN_MOTION_DDOT = 0

CCSDS_OMM_VERS = 2.0
CREATION_DATE  = 
ORIGINATOR     = 

OBJECT_NAME    = COSMOS 2084
OBJECT_ID      = 1990-055A
CENTER_NAME    = EARTH
REF_FRAME      = TEME
TIME_SYSTEM    = UTC
MEAN_ELEMENT_THEORY = SGP/SGP4

EPOCH          = 2025-12-19T03:29:51.994752
MEAN_MOTION    = 15.05056152
ECCENTRICITY   = .00306872
INCLINATION    = 62.7901
RA_OF_ASC_NODE = 250.1652
ARG_OF_PERICENTER = 175.5268
MEAN_ANOMALY   = 184.6112

EPHEMERIS_TYPE = 0
CLASSIFICATION_TYPE = U
NORAD_CAT_ID   = 20663
ELEMENT_SET_NO = 999
REV_AT_EPOCH   = 92419
BSTAR          = .16446271E-3
MEAN_MOTION_DOT = .2166E-4
MEAN_MOTION_DDOT = 0

CCSDS_OMM_VERS = 2.0
CREATION_DATE  = 
ORIGINATOR     = 

OBJECT_NAME    = SL-6 R/B(2)
OBJECT_ID      = 1990-055D
CENTER_NAME    = EARTH
REF_FRAME      = TEME
TIME_SYSTEM    = UTC
MEAN_ELEMENT_THEORY = SGP/SGP4

EPOCH          = 2025-12-18T21:18:32.013792
MEAN_MOTION    = 15.03100893
ECCENTRICITY   = .00133663
INCLINATION    = 62.7810
RA_OF_ASC_NODE = 168.5247
ARG_OF_PERICENTER = 313.0293
MEAN_ANOMALY   = 46.9686

EPHEMERIS_TYPE = 0
CLASSIFICATION_TYPE = U
NORAD_CAT_ID   = 20666
ELEMENT_SET_NO = 999
REV_AT_EPOCH   = 92604
BSTAR          = .131956E-3
MEAN_MOTION_DOT = .1593E-4
MEAN_MOTION_DDOT = 0

CCSDS_OMM_VERS = 2.0
CREATION_DATE  = 
ORIGINATOR     = 

OBJECT_NAME    = SL-8 R/B
OBJECT_ID      = 1990-078B
CENTER_NAME    = EARTH
REF_FRAME      = TEME
TIME_SYSTEM    = UTC
MEAN_ELEMENT_THEORY = SGP/SGP4

EPOCH          = 2025-12-18T23:49:56.800128
MEAN_MOTION    = 14.86177662
ECCENTRICITY   = .03709605
INCLINATION    = 82.9044
RA_OF_ASC_NODE = 323.7112
ARG_OF_PERICENTER = 284.8604
MEAN_ANOMALY   = 71.1810

EPHEMERIS_TYPE = 0
CLASSIFICATION_TYPE = U
NORAD_CAT_ID   = 20775
ELEMENT_SET_NO = 999
REV_AT_EPOCH   = 79730
BSTAR          = .47022628E-3
MEAN_MOTION_DOT = .1521E-3
MEAN_MOTION_DDOT = 0

CCSDS_OMM_VERS = 2.0
CREATION_DATE  = 
ORIGINATOR     = 

OBJECT_NAME    = SL-8 R/B
OBJECT_ID      = 1991-006B
CENTER_NAME    = EARTH
REF_FRAME      = TEME
TIME_SYSTEM    = UTC
MEAN_ELEMENT_THEORY = SGP/SGP4

EPOCH          = 2025-12-19T05:27:49.208832
MEAN_MOTION    = 13.77491139
ECCENTRICITY   = .00211809
INCLINATION    = 82.9421
RA_OF_ASC_NODE = 229.8871
ARG_OF_PERICENTER = 260.5264
MEAN_ANOMALY   = 220.8886

EPHEMERIS_TYPE = 0
CLASSIFICATION_TYPE = U
NORAD_CAT_ID   = 21088
ELEMENT_SET_NO = 999
REV_AT_EPOCH   = 75299
BSTAR          = .91011958E-4
MEAN_MOTION_DOT = .106E-5
MEAN_MOTION_DDOT = 0

CCSDS_OMM_VERS = 2.0
CREATION_DATE  = 
ORIGINATOR     = 

OBJECT_NAME    = OKEAN-3
OBJECT_ID      = 1991-039A
CENTER_NAME    = EARTH
REF_FRAME      = TEME
TIME_SYSTEM    = UTC
MEAN_ELEMENT_THEORY = SGP/SGP4

EPOCH          = 2025-12-19T04:50:19.999968
MEAN_MOTION    = 15.04161422
ECCENTRICITY   = .00134208
INCLINATION    = 82.5179
RA_OF_ASC_NODE = 54.7937
ARG_OF_PERICENTER = 241.6057
MEAN_ANOMALY   = 118.3817

EPHEMERIS_TYPE = 0
CLASSIFICATION_TYPE = U
NORAD_CAT_ID   = 21397
ELEMENT_SET_NO = 999
REV_AT_EPOCH   = 85293
BSTAR          = .16851401E-3
MEAN_MOTION_DOT = .2369E-4
MEAN_MOTION_DDOT = 0

CCSDS_OMM_VERS = 2.0
CREATION_DATE  = 
ORIGINATOR     = 

OBJECT_NAME    = COSMOS 2151
OBJECT_ID      = 1991-042A
CENTER_NAME    = EARTH
REF_FRAME      = TEME
TIME_SYSTEM    = UTC
MEAN_ELEMENT_THEORY = SGP/SGP4

EPOCH          = 2025-12-19T05:29:16.918656
MEAN_MOTION    = 14.99709627
ECCENTRICITY   = .0012028
INCLINATION    = 82.4962
RA_OF_ASC_NODE = 161.2499
ARG_OF_PERICENTER = 337.4101
MEAN_ANOMALY   = 22.6592

EPHEMERIS_TYPE = 0
CLASSIFICATION_TYPE = U
NORAD_CAT_ID   = 21422
ELEMENT_SET_NO = 999
REV_AT_EPOCH   = 85113
BSTAR          = .12492469E-3
MEAN_MOTION_DOT = .157E-4
MEAN_MOTION_DDOT = 0

